GLOBALSTAR M045 [-]     
1 25676U 99019A   23226.81222762 -.00000026  00000+0  59377-3 0  9991
2 25676  51.9977  61.5996 0000799  23.2236 349.9757 12.27015801111098
GLOBALSTAR M019 [-]     
1 25677U 99019B   23226.51437295 -.00000022  00000+0  70818-3 0  9997
2 25677  51.9866 145.5041 0001575  33.6303  15.0003 12.13841892103642
GLOBALSTAR M044 [-]     
1 25678U 99019C   23227.42530125 -.00000135  00000+0 -71448-3 0  9991
2 25678  51.9993  10.2942 0006413 176.9783 216.6046 11.90225489 91319
GLOBALSTAR M042 [-]     
1 25679U 99019D   23226.57959633 -.00000100  00000+0 -76283-4 0  9991
2 25679  52.0004 149.6772 0003484   1.6778  54.1671 12.22046186103095
GLOBALSTAR M025 [-]     
1 25770U 99031A   23226.48845941 -.00000026  00000+0  12697-2 0  9996
2 25770  51.9798 277.6160 0001245 105.4544   2.0336 11.22543892 63826
GLOBALSTAR M049 [-]     
1 25771U 99031B   23227.02871215  .00000048  00000+0  39352-2 0  9991
2 25771  51.9851 277.3467 0002387 317.5484  42.5128 11.12096375 42644
GLOBALSTAR M047 [-]     
1 25772U 99031C   23227.38942415 -.00000051  00000+0  51292-3 0  9995
2 25772  51.9867 337.6769 0016519 187.3212 172.7355 11.31914400 69805
GLOBALSTAR M052 [-]     
1 25773U 99031D   23226.43220655 -.00000088  00000+0 -75569-3 0  9990
2 25773  51.9885  36.8242 0003015 123.2321 254.6596 11.15045397 61291
